{"type": "FeatureCollection", "features": [ {"type": "Feature", "properties": {"norad_id": 36437, "name": "COSMOS 2251 DEB", "group": "cosmos-2251-debris", "lat": 18.903522167632378, "lon": 35.51753324042707, "alt_km": 666.421634276865, "timestamp": "2025-12-14T20:40:32.170274+00:00", "meta": {"OBJECT_NAME": "COSMOS 2251 DEB", "OBJECT_ID": "1993-036BAL", "EPOCH": "2025-12-13T20:05:54.423744", "MEAN_MOTION": 14.70721281, "ECCENTRICITY": 0.0023165, "INCLINATION": 73.9432, "RA_OF_ASC_NODE": 31.8555, "ARG_OF_PERICENTER": 263.2441, "MEAN_ANOMALY": 96.6094, "EPHEMERIS_TYPE": 0, "CLASSIFICATION_TYPE": "U", "NORAD_CAT_ID": 36437, "ELEMENT_SET_NO": 999, "REV_AT_EPOCH": 66067, "BSTAR": 0.0016309327, "MEAN_MOTION_DOT": 9.966e-05, "MEAN_MOTION_DDOT": 0}, "tle": {"line1": "1 36437U 93036BAL 25347.83743546  .00009966  00000+0  16309-2 0  9995", "line2": "2 36437  73.9432  31.8555 0023165 263.2441  96.6094 14.70721281660671"}}, "geometry": {"type": "Point", "coordinates": [35.51753324042707, 18.903522167632378]}}, {"type": "Feature", "properties": {"norad_id": 36439, "name": "COSMOS 2251 DEB", "group": "cosmos-2251-debris", "lat": 73.38582655508287, "lon": 138.845069328323, "alt_km": 1057.1255913847226, "timestamp": "2025-12-14T20:40:32.170284+00:00", "meta": {"OBJECT_NAME": "COSMOS 2251 DEB", "OBJECT_ID": "1993-036BAN", "EPOCH": "2025-12-13T21:04:43.144896", "MEAN_MOTION": 13.47798346, "ECCENTRICITY": 0.04278596, "INCLINATION": 73.9686, "RA_OF_ASC_NODE": 34.8989, "ARG_OF_PERICENTER": 6.5347, "MEAN_ANOMALY": 354.1091, "EPHEMERIS_TYPE": 0, "CLASSIFICATION_TYPE": "U", "NORAD_CAT_ID": 36439, "ELEMENT_SET_NO": 999, "REV_AT_EPOCH": 58628, "BSTAR": 0.0013017792, "MEAN_MOTION_DOT": 1.382e-05, "MEAN_MOTION_DDOT": 0}, "tle": {"line1": "1 36439U 93036BAN 25347.87827714  .00001382  00000+0  13018-2 0  9999", "line2": "2 36439  73.9686  34.8989 0427859   6.5347 354.1091 13.47798346586281"}}, "geometry": {"type": "Point", "coordinates": [138.845069328323, 73.38582655508287]}}, {"type": "Feature", "properties": {"norad_id": 36441, "name": "COSMOS 2251 DEB", "group": "cosmos-2251-debris", "lat": 32.39777665077685, "lon": -4.051542116478782, "alt_km": 494.89630995791504, "timestamp": "2025-12-14T20:40:32.170294+00:00", "meta": {"OBJECT_NAME": "COSMOS 2251 DEB", "OBJECT_ID": "1993-036BAQ", "EPOCH": "2025-12-14T06:11:09.070368", "MEAN_MOTION": 15.0679602, "ECCENTRICITY": 0.01085391, "INCLINATION": 73.835, "RA_OF_ASC_NODE": 346.5968, "ARG_OF_PERICENTER": 85.3354, "MEAN_ANOMALY": 276.0222, "EPHEMERIS_TYPE": 0, "CLASSIFICATION_TYPE": "U", "NORAD_CAT_ID": 36441, "ELEMENT_SET_NO": 999, "REV_AT_EPOCH": 86988, "BSTAR": 0.00049628009, "MEAN_MOTION_DOT": 8.421e-05, "MEAN_MOTION_DDOT": 0}, "tle": {"line1": "1 36441U 93036BAQ 25348.25774387  .00008421  00000+0  49628-3 0  9990", "line2": "2 36441  73.8350 346.5968 0108539  85.3354 276.0222 15.06796020869887"}}, "geometry": {"type": "Point", "coordinates": [-4.051542116478782, 32.39777665077685]}}, {"type": "Feature", "properties": {"norad_id": 36442, "name": "COSMOS 2251 DEB", "group": "cosmos-2251-debris", "lat": -10.720624420313268, "lon": 31.614126367952537, "alt_km": 475.74818295834666, "timestamp": "2025-12-14T20:40:32.170304+00:00", "meta": {"OBJECT_NAME": "COSMOS 2251 DEB", "OBJECT_ID": "1993-036BAR", "EPOCH": "2025-12-08T10:48:39.469248", "MEAN_MOTION": 15.27762018, "ECCENTRICITY": 0.00088131, "INCLINATION": 73.9528, "RA_OF_ASC_NODE": 48.4206, "ARG_OF_PERICENTER": 323.6974, "MEAN_ANOMALY": 36.3628, "EPHEMERIS_TYPE": 0, "CLASSIFICATION_TYPE": "U", "NORAD_CAT_ID": 36442, "ELEMENT_SET_NO": 999, "REV_AT_EPOCH": 85850, "BSTAR": 0.005804433, "MEAN_MOTION_DOT": 0.00161056, "MEAN_MOTION_DDOT": 0}, "tle": {"line1": "1 36442U 93036BAR 25342.45045682  .00161056  00000+0  58044-2 0  9991", "line2": "2 36442  73.9528  48.4206 0008813 323.6974  36.3628 15.27762018858506"}}, "geometry": {"type": "Point", "coordinates": [31.614126367952537, -10.720624420313268]}}, {"type": "Feature", "properties": {"norad_id": 36451, "name": "COSMOS 2251 DEB", "group": "cosmos-2251-debris", "lat": 66.87847986492652, "lon": 109.04029689438428, "alt_km": 733.6432394272406, "timestamp": "2025-12-14T20:40:32.170314+00:00", "meta": {"OBJECT_NAME": "COSMOS 2251 DEB", "OBJECT_ID": "1993-036BBA", "EPOCH": "2025-12-08T10:10:07.447584", "MEAN_MOTION": 14.18724413, "ECCENTRICITY": 0.01840749, "INCLINATION": 73.9539, "RA_OF_ASC_NODE": 342.9701, "ARG_OF_PERICENTER": 168.3937, "MEAN_ANOMALY": 192.1542, "EPHEMERIS_TYPE": 0, "CLASSIFICATION_TYPE": "U", "NORAD_CAT_ID": 36451, "ELEMENT_SET_NO": 999, "REV_AT_EPOCH": 84164, "BSTAR": 0.0010726423, "MEAN_MOTION_DOT": 2.61e-05, "MEAN_MOTION_DDOT": 0}, "tle": {"line1": "1 36451U 93036BBA 25342.42369731  .00002610  00000+0  10726-2 0  9997", "line2": "2 36451  73.9539 342.9701 0184074 168.3937 192.1542 14.18724413841646"}}, "geometry": {"type": "Point", "coordinates": [109.04029689438428, 66.87847986492652]}}, {"type": "Feature", "properties": {"norad_id": 36453, "name": "COSMOS 2251 DEB", "group": "cosmos-2251-debris", "lat": -71.40060795524695, "lon": 27.33587018803839, "alt_km": 767.416464799082, "timestamp": "2025-12-14T20:40:32.170325+00:00", "meta": {"OBJECT_NAME": "COSMOS 2251 DEB", "OBJECT_ID": "1993-036BBC", "EPOCH": "2025-12-14T05:24:41.346720", "MEAN_MOTION": 14.52622899, "ECCENTRICITY": 0.00703566, "INCLINATION": 73.9231, "RA_OF_ASC_NODE": 149.5665, "ARG_OF_PERICENTER": 52.4499, "MEAN_ANOMALY": 123.8553, "EPHEMERIS_TYPE": 0, "CLASSIFICATION_TYPE": "U", "NORAD_CAT_ID": 36453, "ELEMENT_SET_NO": 999, "REV_AT_EPOCH": 84489, "BSTAR": 0.0010040041, "MEAN_MOTION_DOT": 4.218e-05, "MEAN_MOTION_DDOT": 0}, "tle": {"line1": "1 36453U 93036BBC 25348.22547855  .00004218  00000+0  10040-2 0  9993", "line2": "2 36453  73.9231 149.5665 0070356  52.4499 123.8553 14.52622899844896"}}, "geometry": {"type": "Point", "coordinates": [27.33587018803839, -71.40060795524695]}}, {"type": "Feature", "properties": {"norad_id": 36459, "name": "COSMOS 2251 DEB", "group": "cosmos-2251-debris", "lat": -21.110426041688036, "lon": -10.3717526636624, "alt_km": 839.9856117466106, "timestamp": "2025-12-14T20:40:32.170335+00:00", "meta": {"OBJECT_NAME": "COSMOS 2251 DEB", "OBJECT_ID": "1993-036BBJ", "EPOCH": "2025-12-08T08:14:17.711520", "MEAN_MOTION": 14.26367403, "ECCENTRICITY": 0.01135417, "INCLINATION": 74.048, "RA_OF_ASC_NODE": 7.7381, "ARG_OF_PERICENTER": 104.7075, "MEAN_ANOMALY": 256.669, "EPHEMERIS_TYPE": 0, "CLASSIFICATION_TYPE": "U", "NORAD_CAT_ID": 36459, "ELEMENT_SET_NO": 999, "REV_AT_EPOCH": 7819, "BSTAR": 0.0018203568, "MEAN_MOTION_DOT": 4.661e-05, "MEAN_MOTION_DDOT": 0}, "tle": {"line1": "1 36459U 93036BBJ 25342.34326055  .00004661  00000+0  18204-2 0  9995", "line2": "2 36459  74.0480   7.7381 0113541 104.7075 256.6690 14.26367403 78192"}}, "geometry": {"type": "Point", "coordinates": [-10.3717526636624, -21.110426041688036]}}, {"type": "Feature", "properties": {"norad_id": 36470, "name": "COSMOS 2251 DEB", "group": "cosmos-2251-debris", "lat": -71.14215654961512, "lon": -168.07935223564274, "alt_km": 564.8607437177025, "timestamp": "2025-12-14T20:40:32.170345+00:00", "meta": {"OBJECT_NAME": "COSMOS 2251 DEB", "OBJECT_ID": "1993-036BBV", "EPOCH": "2025-12-14T00:19:36.266880", "MEAN_MOTION": 15.07504131, "ECCENTRICITY": 0.00223331, "INCLINATION": 73.8447, "RA_OF_ASC_NODE": 251.7553, "ARG_OF_PERICENTER": 80.4035, "MEAN_ANOMALY": 279.9676, "EPHEMERIS_TYPE": 0, "CLASSIFICATION_TYPE": "U", "NORAD_CAT_ID": 36470, "ELEMENT_SET_NO": 999, "REV_AT_EPOCH": 66113, "BSTAR": 0.003398205, "MEAN_MOTION_DOT": 0.0005223, "MEAN_MOTION_DDOT": 0}, "tle": {"line1": "1 36470U 93036BBV 25348.01361420  .00052230  00000+0  33982-2 0  9998", "line2": "2 36470  73.8447 251.7553 0022333  80.4035 279.9676 15.07504131661136"}}, "geometry": {"type": "Point", "coordinates": [-168.07935223564274, -71.14215654961512]}}, {"type": "Feature", "properties": {"norad_id": 36528, "name": "COSMOS 2251 DEB", "group": "cosmos-2251-debris", "lat": 52.68054378254102, "lon": -60.73176048842445, "alt_km": 759.2669420668062, "timestamp": "2025-12-14T20:40:32.170355+00:00", "meta": {"OBJECT_NAME": "COSMOS 2251 DEB", "OBJECT_ID": "1993-036BCN", "EPOCH": "2025-12-13T18:55:08.710464", "MEAN_MOTION": 14.30652612, "ECCENTRICITY": 0.00848288, "INCLINATION": 74.0164, "RA_OF_ASC_NODE": 143.3079, "ARG_OF_PERICENTER": 192.5264, "MEAN_ANOMALY": 167.378, "EPHEMERIS_TYPE": 0, "CLASSIFICATION_TYPE": "U", "NORAD_CAT_ID": 36528, "ELEMENT_SET_NO": 999, "REV_AT_EPOCH": 64442, "BSTAR": 0.0014916716, "MEAN_MOTION_DOT": 4.03e-05, "MEAN_MOTION_DDOT": 0}, "tle": {"line1": "1 36528U 93036BCN 25347.78829526  .00004030  00000+0  14917-2 0  9993", "line2": "2 36528  74.0164 143.3079 0084828 192.5264 167.3780 14.30652612644426"}}, "geometry": {"type": "Point", "coordinates": [-60.73176048842445, 52.68054378254102]}}, {"type": "Feature", "properties": {"norad_id": 36533, "name": "COSMOS 2251 DEB", "group": "cosmos-2251-debris", "lat": 64.04306892329642, "lon": 146.92456404832788, "alt_km": 754.0336058031107, "timestamp": "2025-12-14T20:40:32.170366+00:00", "meta": {"OBJECT_NAME": "COSMOS 2251 DEB", "OBJECT_ID": "1993-036BCT", "EPOCH": "2025-12-12T08:44:14.485056", "MEAN_MOTION": 14.49814074, "ECCENTRICITY": 0.00492413, "INCLINATION": 74.0111, "RA_OF_ASC_NODE": 115.5327, "ARG_OF_PERICENTER": 264.7641, "MEAN_ANOMALY": 94.7899, "EPHEMERIS_TYPE": 0, "CLASSIFICATION_TYPE": "U", "NORAD_CAT_ID": 36533, "ELEMENT_SET_NO": 999, "REV_AT_EPOCH": 84479, "BSTAR": 0.00081187814, "MEAN_MOTION_DOT": 3.153e-05, "MEAN_MOTION_DDOT": 0}, "tle": {"line1": "1 36533U 93036BCT 25346.36405654  .00003153  00000+0  81188-3 0  9994", "line2": "2 36533  74.0111 115.5327 0049241 264.7641  94.7899 14.49814074844790"}}, "geometry": {"type": "Point", "coordinates": [146.92456404832788, 64.04306892329642]}}]}